{
  "norad_id": 47898,
  "name": "STARLINK-2358",
  "history": [
    {
      "epoch": "2026-03-28T16:27:24.346080Z",
      "apogee_km": 475.95269244752035,
      "perigee_km": 474.4134367610095,
      "latitude_deg": -5.791192058520728e-05,
      "longitude_deg": 106.9313237782408,
      "height_km": 476.16252478748083,
      "semi_major_axis_km": 6853.320064604264,
      "eccentricity": 0.0001123,
      "inclination_deg": 53.1603,
      "raan_deg": 179.8854,
      "arg_perigee_deg": 96.0513,
      "mean_anomaly_deg": 264.0615,
      "mean_motion_rev_day": 15.30210719
    }
  ]
}