{"fetched_at":"2026-03-29T16:36:15Z","count":15609,"tles":[{"name":"STARLINK-2358","line1":"1 47898U 21021AQ  26087.68569845  .00005191  00000+0  18720-3 0  9992","line2":"2 47898  53.1603 179.8854 0001123  96.0513 264.0615 15.30210719279101","category":"Starlink"}]}